NORAD_CAT_ID,OBJECT_NAME,OBJECT_TYPE,EPOCH,MEAN_MOTION,ECCENTRICITY,INCLINATION,RA_OF_ASC_NODE,ARG_OF_PERICENTER,MEAN_ANOMALY,BSTAR,MEAN_MOTION_DOT,MEAN_MOTION_DDOT,TLE_LINE0,TLE_LINE1,TLE_LINE2,SEMIMAJOR_AXIS,PERIOD,APOGEE,PERIGEE,DECAYED
53838.0,STARLINK-4773,PAYLOAD,2024-05-07 05:50:15,15.0885277,0.000134,53.2175,68.5257,87.2891,272.8254,0.00016015,2.263e-05,0.0,0 STARLINK-4773,1 53838U 22114W   24128.24323382  .00002263  00000-0  16015-3 0  9990,2 53838  53.2175  68.5257 0001340  87.2891 272.8254 15.08852770 91607,6917.841,95.437,540.633,538.779,0.0
53838.0,STARLINK-4773,PAYLOAD,2024-05-08 02:30:16,15.08835503,0.0001188,53.2167,64.6601,93.1444,266.9684,-8.1507e-05,-1.585e-05,0.0,0 STARLINK-4773,1 53838U 22114W   24129.10436085 -.00001585  00000-0 -81507-4 0  9998,2 53838  53.2167  64.6601 0001188  93.1444 266.9684 15.08835503 91198,6917.894,95.438,540.581,538.937,0.0
53838.0,STARLINK-4773,PAYLOAD,2024-05-08 05:41:03,15.0883774,0.0001249,53.218,64.0658,96.5194,263.5941,-2.2366e-05,-6.44e-06,0.0,0 STARLINK-4773,1 53838U 22114W   24129.23684343 -.00000644  00000-0 -22366-4 0  9997,2 53838  53.2180  64.0658 0001249  96.5194 263.5941 15.08837740 91752,6917.887,95.438,540.616,538.888,0.0
53838.0,STARLINK-4773,PAYLOAD,2024-05-09 11:53:21,15.08854143,0.0001278,53.2195,58.4182,94.1737,265.9401,0.00012419,1.69e-05,0.0,0 STARLINK-4773,1 53838U 22114W   24130.49539054  .00001690  00000-0  12419-3 0  9992,2 53838  53.2195  58.4182 0001278  94.1737 265.9401 15.08854143 91401,6917.837,95.437,540.586,538.818,0.0
53838.0,STARLINK-4773,PAYLOAD,2024-05-09 23:01:05,15.08834056,0.0001728,53.2195,56.34,112.8489,247.2686,0.00012231,1.659e-05,0.0,0 STARLINK-4773,1 53838U 22114W   24130.95908732  .00001659  00000-0  12231-3 0  9993,2 53838  53.2195  56.3400 0001728 112.8489 247.2686 15.08834056 92010,6917.899,95.438,540.959,538.568,0.0
53838.0,STARLINK-4773,PAYLOAD,2024-05-10 03:47:14,15.08836917,0.0001326,53.2194,55.445,95.8873,264.2271,0.00017406,2.483e-05,0.0,0 STARLINK-4773,1 53838U 22114W   24131.15780597  .00002483  00000-0  17406-3 0  9998,2 53838  53.2194  55.4450 0001326  95.8873 264.2271 15.08836917 91505,6917.89,95.438,540.672,538.838,0.0
53838.0,STARLINK-4773,PAYLOAD,2024-05-10 11:44:09,15.08846455,0.0001369,53.2193,53.9583,95.9359,264.1789,0.00022188,3.246e-05,0.0,0 STARLINK-4773,1 53838U 22114W   24131.48900047  .00003246  00000-0  22188-3 0  9999,2 53838  53.2193  53.9583 0001369  95.9359 264.1789 15.08846455 91557,6917.861,95.437,540.673,538.779,0.0
53838.0,STARLINK-4773,PAYLOAD,2024-05-11 11:34:53,15.08921328,0.0001334,53.2198,49.5011,88.5946,271.5199,0.0014858,0.0002349,0.0,0 STARLINK-4773,1 53838U 22114W   24132.48256700  .00023490  00000-0  14858-2 0  9997,2 53838  53.2198  49.5011 0001334  88.5946 271.5199 15.08921328 91708,6917.632,95.432,540.42,538.574,0.0
53838.0,STARLINK-4773,PAYLOAD,2024-05-11 22:42:37,15.0884309,0.0001493,53.2194,47.4175,101.1341,258.9819,-0.00019591,-3.405e-05,0.0,0 STARLINK-4773,1 53838U 22114W   24132.94626815 -.00003405  00000-0 -19591-3 0  9992,2 53838  53.2194  47.4175 0001493 101.1341 258.9819 15.08843090 92314,6917.871,95.437,540.769,538.703,0.0
53838.0,STARLINK-4773,PAYLOAD,2024-05-12 03:28:49,15.08716242,0.0001106,53.2178,46.5243,81.4953,278.6164,-0.0037391,-0.00059106,0.0,0 STARLINK-4773,1 53838U 22114W   24133.14502221 -.00059106  00000-0 -37391-2 0  9995,2 53838  53.2178  46.5243 0001106  81.4953 278.6164 15.08716242 91805,6918.259,95.445,540.889,539.359,0.0
53838.0,STARLINK-4773,PAYLOAD,2024-05-12 11:25:48,15.08707773,0.00017,53.2183,45.0387,99.2916,260.8269,-0.0026682,-0.00042351,0.0,0 STARLINK-4773,1 53838U 22114W   24133.47625431 -.00042351  00000-0 -26682-2 0  9995,2 53838  53.2183  45.0387 0001700  99.2916 260.8269 15.08707773 91853,6918.285,95.446,541.326,538.973,0.0
53838.0,STARLINK-4773,PAYLOAD,2024-05-12 17:47:19,15.08805829,0.0001289,53.218,43.8487,73.7103,286.4031,0.00016858,2.394e-05,0.0,0 STARLINK-4773,1 53838U 22114W   24133.74120300  .00002394  00000-0  16858-3 0  9996,2 53838  53.2180  43.8487 0001289  73.7103 286.4031 15.08805829 91890,6917.985,95.44,540.742,538.958,0.0
53838.0,STARLINK-4773,PAYLOAD,2024-05-13 00:08:52,15.08830211,0.000165,53.2176,42.6583,96.6281,263.4899,0.00064404,9.974e-05,0.0,0 STARLINK-4773,1 53838U 22114W   24134.00615810  .00009974  00000-0  64404-3 0  9992,2 53838  53.2176  42.6583 0001650  96.6281 263.4899 15.08830211 91937,6917.91,95.438,540.917,538.634,0.0
53838.0,STARLINK-4773,PAYLOAD,2024-05-13 11:16:34,15.0884352,0.0001741,53.218,40.575,95.192,264.9271,0.0020611,0.0003267,0.0,0 STARLINK-4773,1 53838U 22114W   24134.46984866  .00032670  00000-0  20611-2 0  9992,2 53838  53.2180  40.5750 0001741  95.1920 264.9271 15.08843520 92545,6917.87,95.437,540.939,538.53,0.0
53838.0,STARLINK-4773,PAYLOAD,2024-05-13 17:38:06,15.08856194,0.000235,53.2187,39.3862,87.3984,272.7277,0.001404,0.00022138,0.0,0 STARLINK-4773,1 53838U 22114W   24134.73479964  .00022138  00000-0  14040-2 0  9997,2 53838  53.2187  39.3862 0002350  87.3984 272.7277 15.08856194 92580,6917.831,95.437,541.322,538.07,0.0
53838.0,STARLINK-4773,PAYLOAD,2024-05-14 03:10:24,15.08877784,0.0001582,53.2172,37.6022,84.4729,275.6443,0.001489,0.00023513,0.0,0 STARLINK-4773,1 53838U 22114W   24135.13222673  .00023513  00000-0  14890-2 0  9996,2 53838  53.2172  37.6022 0001582  84.4729 275.6443 15.08877784 92107,6917.765,95.435,540.724,538.536,0.0
53838.0,STARLINK-4773,PAYLOAD,2024-05-14 11:07:18,15.08890213,0.0001867,53.2174,36.1149,87.4218,272.6988,0.00083403,0.00013029,0.0,0 STARLINK-4773,1 53838U 22114W   24135.46341172  .00013029  00000-0  83403-3 0  9996,2 53838  53.2174  36.1149 0001867  87.4218 272.6988 15.08890213 92692,6917.727,95.434,540.883,538.3,0.0
53838.0,STARLINK-4773,PAYLOAD,2024-05-14 22:15:00,15.08856266,0.0001191,53.2181,34.033,96.9553,263.1574,-0.00024214,-4.141e-05,0.0,0 STARLINK-4773,1 53838U 22114W   24135.92709215 -.00004141  00000-0 -24214-3 0  9995,2 53838  53.2181  34.0330 0001191  96.9553 263.1574 15.08856266 92760,6917.831,95.437,540.52,538.872,0.0
53838.0,STARLINK-4773,PAYLOAD,2024-05-14 23:50:23,15.08860638,0.0001372,53.2183,33.7355,104.427,255.6874,-0.00027746,-4.704e-05,0.0,0 STARLINK-4773,1 53838U 22114W   24135.99332848 -.00004704  00000-0 -27746-3 0  9994,2 53838  53.2183  33.7355 0001372 104.4270 255.6874 15.08860638 92236,6917.817,95.436,540.631,538.733,0.0
53838.0,STARLINK-4773,PAYLOAD,2024-05-15 20:30:23,15.08846872,0.0001202,53.2189,29.8694,108.1625,251.9498,-0.00018688,-3.261e-05,0.0,0 STARLINK-4773,1 53838U 22114W   24136.85444442 -.00003261  00000-0 -18688-3 0  9996,2 53838  53.2189  29.8694 0001202 108.1625 251.9498 15.08846872 92360,6917.859,95.437,540.556,538.893,0.0
53838.0,STARLINK-4773,PAYLOAD,2024-05-15 22:05:47,15.08848856,0.0001402,53.2189,29.5718,107.2915,252.823,-0.00024824,-4.237e-05,0.0,0 STARLINK-4773,1 53838U 22114W   24136.92068446 -.00004237  00000-0 -24824-3 0  9993,2 53838  53.2189  29.5718 0001402 107.2915 252.8230 15.08848856 92917,6917.853,95.437,540.688,538.748,0.0
53838.0,STARLINK-4773,PAYLOAD,2024-05-16 09:13:28,15.0885797,0.0001409,53.2186,27.4924,85.1288,274.9865,0.00015656,2.206e-05,0.0,0 STARLINK-4773,1 53838U 22114W   24137.38436062  .00002206  00000-0  15656-3 0  9992,2 53838  53.2186  27.4924 0001409  85.1288 274.9865 15.08857970 92448,6917.825,95.436,540.665,538.716,0.0
53838.0,STARLINK-4773,PAYLOAD,2024-05-16 17:10:25,15.08837621,0.0001755,53.2192,26.0071,64.3089,295.8084,0.0001596,2.253e-05,0.0,0 STARLINK-4773,1 53838U 22114W   24137.71557188  .00002253  00000-0  15960-3 0  9992,2 53838  53.2192  26.0071 0001755  64.3089 295.8084 15.08837621 92496,6917.888,95.438,540.967,538.539,0.0
53838.0,STARLINK-4773,PAYLOAD,2024-05-16 23:31:57,15.08850935,0.000247,53.2185,24.8151,88.0122,272.1153,0.00030495,4.57e-05,0.0,0 STARLINK-4773,1 53838U 22114W   24137.98052655  .00004570  00000-0  30495-3 0  9994,2 53838  53.2185  24.8151 0002470  88.0122 272.1153 15.08850935 92532,6917.847,95.437,541.421,538.003,0.0
53838.0,STARLINK-4773,PAYLOAD,2024-05-17 09:04:15,15.08856151,0.0002177,53.2193,23.0298,77.8325,282.2911,0.00032677,4.918e-05,0.0,0 STARLINK-4773,1 53838U 22114W   24138.37796144  .00004918  00000-0  32677-3 0  9996,2 53838  53.2193  23.0298 0002177  77.8325 282.2911 15.08856151 93136,6917.831,95.437,541.202,538.19,0.0
53838.0,STARLINK-4773,PAYLOAD,2024-05-17 23:22:45,15.08811343,0.0001099,53.2178,20.3567,81.2369,278.8748,-0.00043496,-7.198e-05,0.0,0 STARLINK-4773,1 53838U 22114W   24138.97414021 -.00007198  00000-0 -43496-3 0  9999,2 53838  53.2178  20.3567 0001099  81.2369 278.8748 15.08811343 93220,6917.968,95.439,540.593,539.073,0.0
53838.0,STARLINK-4773,PAYLOAD,2024-05-18 02:33:31,15.08833615,0.000156,53.2197,19.7615,86.2452,273.8719,4.1252e-06,-2.22e-06,0.0,0 STARLINK-4773,1 53838U 22114W   24139.10661663 -.00000222  00000-0  41252-5 0  9991,2 53838  53.2197  19.7615 0001560  86.2452 273.8719 15.08833615 92709,6917.9,95.438,540.844,538.686,0.0
53838.0,STARLINK-4773,PAYLOAD,2024-05-18 08:55:03,15.08852327,9.15e-05,53.218,18.5713,65.439,294.6698,0.00042665,6.511e-05,0.0,0 STARLINK-4773,1 53838U 22114W   24139.37156806  .00006511  00000-0  42665-3 0  9991,2 53838  53.2180  18.5713 0000915  65.4390 294.6698 15.08852327 92742,6917.843,95.437,540.341,539.075,0.0
53838.0,STARLINK-4773,PAYLOAD,2024-05-18 21:38:09,15.08839503,0.0001979,53.2205,16.19,73.6139,286.5071,0.00021056,3.064e-05,0.0,0 STARLINK-4773,1 53838U 22114W   24139.90149367  .00003064  00000-0  21056-3 0  9995,2 53838  53.2205  16.1900 0001979  73.6139 286.5071 15.08839503 92820,6917.882,95.438,541.116,538.378,0.0
53838.0,STARLINK-4773,PAYLOAD,2024-05-18 23:13:32,15.08842971,0.000172,53.2197,15.8927,74.3687,285.7495,0.00028435,4.241e-05,0.0,0 STARLINK-4773,1 53838U 22114W   24139.96773526  .00004241  00000-0  28435-3 0  9997,2 53838  53.2197  15.8927 0001720  74.3687 285.7495 15.08842971 93370,6917.871,95.437,540.926,538.546,0.0
